DIRECTV 15              
1 40663U 15026A   26178.27844573 -.00000091  00000+0  00000+0 0  9996
2 40663   0.0171  59.1244 0000473  26.3791 187.2525  1.00270753 40567
SKY MEXICO-1            
1 40664U 15026B   26178.19003038 -.00000223  00000+0  00000+0 0  9998
2 40664   0.0154 341.9092 0002591 130.6397 152.3678  1.00272001 40555
SENTINEL-2A             
1 40697U 15028A   26178.28462789 -.00000127  00000+0 -31913-4 0  9994
2 40697  98.5686 252.9931 0001172  94.4853 265.6464 14.30817302575172
COSMOS 2506             
1 40699U 15029A   26178.28336639  .00000235  00000+0  65354-4 0  9995
2 40699  98.0464 218.7272 0008418 118.1245 242.0805 14.54389560584354
GAOFEN-8                
1 40701U 15030A   26178.31356594  .00014444  00000+0  29436-3 0  9994
2 40701  97.6903  12.2930 0009470 151.4356 208.7414 15.46304782613017
DMC3-FM1                
1 40715U 15032A   26178.24019080  .00000694  00000+0  85797-4 0  9994
2 40715  97.6456  43.0206 0006429  32.8816 327.2799 14.85748335591406
DMC3-FM2                
1 40716U 15032B   26178.26220245  .00001190  00000+0  14284-3 0  9998
2 40716  97.6512  44.6225 0007111  37.3402 322.8307 14.85757004591407
DMC3-FM3                
1 40717U 15032C   26178.28559972  .00000314  00000+0  42122-4 0  9993
2 40717  97.6564  46.4045 0006348  37.9458 322.2204 14.85744044591414
CARBONITE 1 (CBNT-1)    
1 40718U 15032D   26178.29927088  .00001450  00000+0  18175-3 0  9994
2 40718  97.6508 355.9421 0012947 261.1192  98.8556 14.83614530590843
NAVSTAR 74 (USA 262)    
1 40730U 15033A   26177.69437855 -.00000031  00000+0  00000+0 0  9999
2 40730  53.9750 266.6943 0115145  30.2371 330.4696  2.00555882 80187
METEOSAT-11 (MSG-4)     
1 40732U 15034A   26178.16653583  .00000070  00000+0  00000+0 0  9995
2 40732   3.2255  71.0480 0002243 347.4242 286.1812  1.00266192  7318
STAR ONE C4             
1 40733U 15034B   26178.18447569 -.00000253  00000+0  00000+0 0  9997
2 40733   0.0246 333.0892 0002174  96.9445 201.6836  1.00270948 40113
WGS F7 (USA 263)        
1 40746U 15036A   26178.05662687  .00000000  00000+0  00000+0 0  9998
2 40746   0.0425  55.2950 0000652 134.9470 280.2783  1.00270567 39977
BEIDOU-3S M2S           
1 40748U 15037A   26176.91454553 -.00000104  00000+0  00000+0 0  9991
2 40748  54.8627 301.7450 0008580 258.5842 101.3122  1.86232105 74281
BEIDOU-3S M1S           
1 40749U 15037B   26177.12087142 -.00000103  00000+0  00000+0 0  9991
2 40749  54.8590 301.7263 0003237  62.2861 297.7397  1.86255003 74295
INTELSAT 34 (IS-34)     
1 40874U 15039A   26178.22492428 -.00000274  00000+0  00000+0 0  9990
2 40874   0.0108  12.1742 0000772  29.5641 259.0762  1.00275995 39735
EUTELSAT 8 WEST B       
1 40875U 15039B   26178.16306916 -.00000054  00000+0  00000+0 0  9996
2 40875   0.0634   7.8649 0003746  84.5569 233.5577  1.00271675 39755
YAOGAN-27               
1 40878U 15040A   26178.29137024 -.00000051  00000+0 -21376-4 0  9999
2 40878 100.1153 164.2356 0007955 186.0757 174.0262 13.16071173518991
GSAT-6                  
1 40880U 15041A   26178.18100924 -.00000150  00000+0  00000+0 0  9995
2 40880   1.9443  82.4719 0003121   6.3505 334.1638  1.00270643 39698
INMARSAT 5-F3           
1 40882U 15042A   26178.12890535  .00000062  00000+0  00000+0 0  9997
2 40882   0.0188  21.9777 0000449  85.0372  34.2284  1.00271900 39674
MUOS-4                  
1 40887U 15044A   26178.17953590 -.00000085  00000+0  00000+0 0  9996
2 40887   4.3482  42.3052 0057804   2.9903   9.6129  1.00272368 39663
GSAT0206 (GALILEO 10)   
1 40890U 15045B   26175.49628500  .00000051  00000+0  00000+0 0  9995
2 40890  54.9433 221.4024 0001685 336.0482  24.0274  1.70473861 67168
TJS-1                   
1 40892U 15046A   26178.19541110 -.00000145  00000+0  00000+0 0  9994
2 40892   0.3490  84.9183 0005929   5.5255  50.2408  1.00270718 39671
GAOFEN-9 01             
1 40894U 15047A   26178.25166682  .00001018  00000+0  13092-3 0  9999
2 40894  97.6271 213.4890 0028856 106.3316 254.1074 14.82902442581682
EXPRESS-AM8             
1 40895U 15048A   26177.66283573 -.00000100  00000+0  00000+0 0  9997
2 40895   0.0168 328.7711 0000410  85.7051  84.9254  1.00271665 39443
LILACSAT-2              
1 40908U 15049K   26178.33302722  .00018646  00000+0  31362-3 0  9998
2 40908  97.4637 215.5614 0006478 200.5095 159.5898 15.51771421597324
COSMOS 2507 (RODNIK-S *)
1 40920U 15050A   26178.29402964  .00000004  00000+0 -42655-4 0  9996
2 40920  82.4926  73.3776 0009757 334.9975  25.0631 12.42926788488117
COSMOS 2508 (RODNIK-S *)
1 40921U 15050B   26178.24914808  .00000020  00000+0  72585-4 0  9999
2 40921  82.4878  71.9069 0014770   5.9109 354.2143 12.42914314488092
COSMOS 2509 (RODNIK-S *)
1 40922U 15050C   26178.26973503  .00000068  00000+0  41653-3 0  9992
2 40922  82.4886  71.9974 0015414  22.3191 337.8556 12.42884004488139
ASTROSAT                
1 40930U 15052A   26177.91335745  .00001538  00000+0  10540-3 0  9998
2 40930   5.9973  85.3306 0007890 177.8458 182.1704 14.82522407581271
BEIDOU-3S IGSO-2S       
1 40938U 15053A   26177.68456693 -.00000116  00000+0  00000+0 0  9995
2 40938  49.2053 258.6677 0065522 192.9538 164.2588  1.00257789 39440
