OBJECT_NAME,OBJECT_ID,EPOCH,MEAN_MOTION,ECCENTRICITY,INCLINATION,RA_OF_ASC_NODE,ARG_OF_PERICENTER,MEAN_ANOMALY,EPHEMERIS_TYPE,CLASSIFICATION_TYPE,NORAD_CAT_ID,ELEMENT_SET_NO,REV_AT_EPOCH,BSTAR,MEAN_MOTION_DOT,MEAN_MOTION_DDOT
DIRECTV 15,2015-026A,2026-06-27T06:40:57.711072,1.00270753,.00004737,0.0171,59.1244,26.3791,187.2525,0,U,40663,999,4056,0,-.91E-6,0
SKY MEXICO-1,2015-026B,2026-06-27T04:33:38.624832,1.00272001,.0002591,0.0154,341.9092,130.6397,152.3678,0,U,40664,999,4055,0,-.223E-5,0
SENTINEL-2A,2015-028A,2026-06-27T06:49:51.849696,14.30817302,.00011729,98.5686,252.9931,94.4853,265.6464,0,U,40697,999,57517,-.3191333E-4,-.127E-5,0
COSMOS 2506,2015-029A,2026-06-27T06:48:02.856096,14.54389560,.00084187,98.0464,218.7272,118.1245,242.0805,0,U,40699,999,58435,.6535382E-4,.235E-5,0
GAOFEN-8,2015-030A,2026-06-27T07:31:32.097216,15.46304782,.00094703,97.6903,12.2930,151.4356,208.7414,0,U,40701,999,61301,.29435806E-3,.14444E-3,0
DMC3-FM1,2015-032A,2026-06-27T05:45:52.485120,14.85748335,.00064296,97.6456,43.0206,32.8816,327.2799,0,U,40715,999,59140,.8579738E-4,.694E-5,0
DMC3-FM2,2015-032B,2026-06-27T06:17:34.291680,14.85757004,.00071113,97.6512,44.6225,37.3402,322.8307,0,U,40716,999,59140,.14283513E-3,.119E-4,0
DMC3-FM3,2015-032C,2026-06-27T06:51:15.815808,14.85744044,.00063488,97.6564,46.4045,37.9458,322.2204,0,U,40717,999,59141,.42122385E-4,.314E-5,0
CARBONITE 1 (CBNT-1),2015-032D,2026-06-27T07:10:57.004032,14.83614530,.00129478,97.6508,355.9421,261.1192,98.8556,0,U,40718,999,59084,.18174636E-3,.145E-4,0
NAVSTAR 74 (USA 262),2015-033A,2026-06-26T16:39:54.306720,2.00555882,.0115145,53.9750,266.6943,30.2371,330.4696,0,U,40730,999,8018,0,-.31E-6,0
METEOSAT-11 (MSG-4),2015-034A,2026-06-27T03:59:48.695712,1.00266192,.00022434,3.2255,71.0480,347.4242,286.1812,0,U,40732,999,731,0,.7E-6,0
STAR ONE C4,2015-034B,2026-06-27T04:25:38.699616,1.00270948,.00021749,0.0246,333.0892,96.9445,201.6836,0,U,40733,999,4011,0,-.253E-5,0
WGS F7 (USA 263),2015-036A,2026-06-27T01:21:32.561568,1.00270567,.00006523,0.0425,55.2950,134.9470,280.2783,0,U,40746,999,3997,0,0,0
BEIDOU-3S M2S,2015-037A,2026-06-25T21:56:56.733792,1.86232105,.000858,54.8627,301.7450,258.5842,101.3122,0,U,40748,999,7428,0,-.104E-5,0
BEIDOU-3S M1S,2015-037B,2026-06-26T02:54:03.290688,1.86255003,.0003237,54.8590,301.7263,62.2861,297.7397,0,U,40749,999,7429,0,-.103E-5,0
INTELSAT 34 (IS-34),2015-039A,2026-06-27T05:23:53.457792,1.00275995,.00007722,0.0108,12.1742,29.5641,259.0762,0,U,40874,999,3973,0,-.274E-5,0
EUTELSAT 8 WEST B,2015-039B,2026-06-27T03:54:49.175424,1.00271675,.00037466,0.0634,7.8649,84.5569,233.5577,0,U,40875,999,3975,0,-.54E-6,0
YAOGAN-27,2015-040A,2026-06-27T06:59:34.388736,13.16071173,.00079555,100.1153,164.2356,186.0757,174.0262,0,U,40878,999,51899,-.21376244E-4,-.51E-6,0
GSAT-6,2015-041A,2026-06-27T04:20:39.198336,1.00270643,.00031212,1.9443,82.4719,6.3505,334.1638,0,U,40880,999,3969,0,-.15E-5,0
INMARSAT 5-F3,2015-042A,2026-06-27T03:05:37.422240,1.00271900,.00004493,0.0188,21.9777,85.0372,34.2284,0,U,40882,999,3967,0,.62E-6,0
MUOS-4,2015-044A,2026-06-27T04:18:31.901760,1.00272368,.00578044,4.3482,42.3052,2.9903,9.6129,0,U,40887,999,3966,0,-.85E-6,0
GSAT0206 (GALILEO 10),2015-045B,2026-06-24T11:54:39.024000,1.70473861,.00016854,54.9433,221.4024,336.0482,24.0274,0,U,40890,999,6716,0,.51E-6,0
TJS-1,2015-046A,2026-06-27T04:41:23.519040,1.00270718,.00059298,0.3490,84.9183,5.5255,50.2408,0,U,40892,999,3967,0,-.145E-5,0
GAOFEN-9 01,2015-047A,2026-06-27T06:02:24.013248,14.82902442,.00288562,97.6271,213.4890,106.3316,254.1074,0,U,40894,999,58168,.13091926E-3,.1018E-4,0
EXPRESS-AM8,2015-048A,2026-06-26T15:54:29.007072,1.00271665,.00004108,0.0168,328.7711,85.7051,84.9254,0,U,40895,999,3944,0,-.1E-5,0
LILACSAT-2,2015-049K,2026-06-27T07:59:33.551808,15.51771421,.00064787,97.4637,215.5614,200.5095,159.5898,0,U,40908,999,59732,.31361584E-3,.18646E-3,0
COSMOS 2507 (RODNIK-S 13),2015-050A,2026-06-27T07:03:24.160896,12.42926788,.00097575,82.4926,73.3776,334.9975,25.0631,0,U,40920,999,48811,-.42655079E-4,.4E-7,0
COSMOS 2508 (RODNIK-S 14),2015-050B,2026-06-27T05:58:46.394112,12.42914314,.00147708,82.4878,71.9069,5.9109,354.2143,0,U,40921,999,48809,.72584656E-4,.2E-6,0
COSMOS 2509 (RODNIK-S 15),2015-050C,2026-06-27T06:28:25.106592,12.42884004,.00154148,82.4886,71.9974,22.3191,337.8556,0,U,40922,999,48813,.41652525E-3,.68E-6,0
ASTROSAT,2015-052A,2026-06-26T21:55:14.083680,14.82522407,.000789,5.9973,85.3306,177.8458,182.1704,0,U,40930,999,58127,.1054E-3,.1538E-4,0
BEIDOU-3S IGSO-2S,2015-053A,2026-06-26T16:25:46.582752,1.00257789,.00655228,49.2053,258.6677,192.9538,164.2588,0,U,40938,999,3944,0,-.116E-5,0
